STARLINK-35326          
1 66031U 25232AC  26001.42352286  .00025032  00000+0  85437-3 0  9992
2 66031  53.1600  56.5684 0000945  96.0588 264.0520 15.30202401 13136
STARLINK-35311          
1 66032U 25232AD  26001.54360164  .00040225  00000+0  13628-2 0  9993
2 66032  53.1612  55.8915 0001191  68.1978 291.9150 15.30202758 13151
STARLINK-35552          
1 66058U 25235A   26001.07725026  .00031535  00000+0  10724-2 0  9992
2 66058  53.1588 196.8719 0001612  99.2762 260.8421 15.30198716 12606
STARLINK-35560          
1 66059U 25235B   26001.56031378  .00037815  00000+0  12814-2 0  9996
2 66059  53.1581 197.0779 0001362 114.3932 245.7211 15.30224194 12642
STARLINK-35558          
1 66060U 25235C   26001.52138317  .00030565  00000+0  10393-2 0  9990
2 66060  53.1603 197.5495 0001232  96.7834 263.3307 15.30217411 12634
STARLINK-35566          
1 66061U 25235D   25365.82285562  .00019588  00000+0  67174-3 0  9993
2 66061  53.1587 200.2964 0001085 106.2052 253.9069 15.30199266 12530
STARLINK-35421          
1 66062U 25235E   26001.50871998  .00038872  00000+0  13171-2 0  9995
2 66062  53.1571 197.4710 0001474  96.6977 263.4192 15.30215530 12637
STARLINK-35562          
1 66063U 25235F   26001.52982803  .00033161  00000+0  11263-2 0  9992
2 66063  53.1608 197.6002 0001382  86.7172 273.3987 15.30213516 12634
STARLINK-35542          
1 66064U 25235G   25365.85766944  .00080618  00000+0  26976-2 0  9993
2 66064  53.1588 200.5197 0001734  88.0360 272.0840 15.30284481 12538
STARLINK-35375          
1 66065U 25235H   25365.80925125  .00040049  00000+0  13562-2 0  9998
2 66065  53.1598 200.9251 0000654 101.7551 258.3523 15.30219601 12526
STARLINK-35179          
1 66066U 25235J   25365.86190205  .00019468  00000+0  66720-3 0  9994
2 66066  53.1593 200.5445 0000708  87.5772 272.5309 15.30223462 12530
STARLINK-35401          
1 66067U 25235K   26001.56770179  .00042512  00000+0  14380-2 0  9994
2 66067  53.1587 197.1305 0001247  99.8428 260.2714 15.30229110 12612
STARLINK-35422          
1 66068U 25235L   26001.55396576  .00041560  00000+0  14070-2 0  9997
2 66068  53.1574 197.0353 0001058  61.2294 298.8813 15.30210792 12618
STARLINK-35279          
1 66069U 25235M   26001.54765229  .00034836  00000+0  11822-2 0  9992
2 66069  53.1577 196.9905 0001305 124.5194 235.5930 15.30216957 12640
STARLINK-35295          
1 66070U 25235N   25365.80502848  .00027928  00000+0  95131-3 0  9991
2 66070  53.1605 200.8914 0000786 115.7461 244.3621 15.30206757 12529
STARLINK-35323          
1 66071U 25235P   25365.81652476  .00029150  00000+0  99220-3 0  9998
2 66071  53.1593 200.2552 0000859  90.3382 269.7717 15.30208601 12537
