[{"OBJECT_NAME":"STARLINK-35326","OBJECT_ID":"2025-232AC","EPOCH":"2026-01-01T10:09:52.375104","MEAN_MOTION":15.30202401,"ECCENTRICITY":9.455e-5,"INCLINATION":53.16,"RA_OF_ASC_NODE":56.5684,"ARG_OF_PERICENTER":96.0588,"MEAN_ANOMALY":264.052,"EPHEMERIS_TYPE":0,"CLASSIFICATION_TYPE":"U","NORAD_CAT_ID":66031,"ELEMENT_SET_NO":999,"REV_AT_EPOCH":1313,"BSTAR":0.00085437447,"MEAN_MOTION_DOT":0.00025032,"MEAN_MOTION_DDOT":0},{"OBJECT_NAME":"STARLINK-35311","OBJECT_ID":"2025-232AD","EPOCH":"2026-01-01T13:02:47.181696","MEAN_MOTION":15.30202758,"ECCENTRICITY":0.00011917,"INCLINATION":53.1612,"RA_OF_ASC_NODE":55.8915,"ARG_OF_PERICENTER":68.1978,"MEAN_ANOMALY":291.915,"EPHEMERIS_TYPE":0,"CLASSIFICATION_TYPE":"U","NORAD_CAT_ID":66032,"ELEMENT_SET_NO":999,"REV_AT_EPOCH":1315,"BSTAR":0.0013627814,"MEAN_MOTION_DOT":0.00040225,"MEAN_MOTION_DDOT":0},{"OBJECT_NAME":"STARLINK-35552","OBJECT_ID":"2025-235A","EPOCH":"2026-01-01T01:51:14.422464","MEAN_MOTION":15.30198716,"ECCENTRICITY":0.00016127,"INCLINATION":53.1588,"RA_OF_ASC_NODE":196.8719,"ARG_OF_PERICENTER":99.2762,"MEAN_ANOMALY":260.8421,"EPHEMERIS_TYPE":0,"CLASSIFICATION_TYPE":"U","NORAD_CAT_ID":66058,"ELEMENT_SET_NO":999,"REV_AT_EPOCH":1260,"BSTAR":0.0010723659,"MEAN_MOTION_DOT":0.00031535,"MEAN_MOTION_DDOT":0},{"OBJECT_NAME":"STARLINK-35560","OBJECT_ID":"2025-235B","EPOCH":"2026-01-01T13:26:51.110592","MEAN_MOTION":15.30224194,"ECCENTRICITY":0.00013627,"INCLINATION":53.1581,"RA_OF_ASC_NODE":197.0779,"ARG_OF_PERICENTER":114.3932,"MEAN_ANOMALY":245.7211,"EPHEMERIS_TYPE":0,"CLASSIFICATION_TYPE":"U","NORAD_CAT_ID":66059,"ELEMENT_SET_NO":999,"REV_AT_EPOCH":1264,"BSTAR":0.0012814316,"MEAN_MOTION_DOT":0.00037815,"MEAN_MOTION_DDOT":0},{"OBJECT_NAME":"STARLINK-35558","OBJECT_ID":"2025-235C","EPOCH":"2026-01-01T12:30:47.505888","MEAN_MOTION":15.30217411,"ECCENTRICITY":0.00012327,"INCLINATION":53.1603,"RA_OF_ASC_NODE":197.5495,"ARG_OF_PERICENTER":96.7834,"MEAN_ANOMALY":263.3307,"EPHEMERIS_TYPE":0,"CLASSIFICATION_TYPE":"U","NORAD_CAT_ID":66060,"ELEMENT_SET_NO":999,"REV_AT_EPOCH":1263,"BSTAR":0.0010392958,"MEAN_MOTION_DOT":0.00030565,"MEAN_MOTION_DDOT":0},{"OBJECT_NAME":"STARLINK-35566","OBJECT_ID":"2025-235D","EPOCH":"2025-12-31T19:44:54.725568","MEAN_MOTION":15.30199266,"ECCENTRICITY":0.00010852,"INCLINATION":53.1587,"RA_OF_ASC_NODE":200.2964,"ARG_OF_PERICENTER":106.2052,"MEAN_ANOMALY":253.9069,"EPHEMERIS_TYPE":0,"CLASSIFICATION_TYPE":"U","NORAD_CAT_ID":66061,"ELEMENT_SET_NO":999,"REV_AT_EPOCH":1253,"BSTAR":0.00067174451,"MEAN_MOTION_DOT":0.00019588,"MEAN_MOTION_DDOT":0},{"OBJECT_NAME":"STARLINK-35421","OBJECT_ID":"2025-235E","EPOCH":"2026-01-01T12:12:33.406272","MEAN_MOTION":15.3021553,"ECCENTRICITY":0.00014741,"INCLINATION":53.1571,"RA_OF_ASC_NODE":197.471,"ARG_OF_PERICENTER":96.6977,"MEAN_ANOMALY":263.4192,"EPHEMERIS_TYPE":0,"CLASSIFICATION_TYPE":"U","NORAD_CAT_ID":66062,"ELEMENT_SET_NO":999,"REV_AT_EPOCH":1263,"BSTAR":0.0013170859,"MEAN_MOTION_DOT":0.00038872,"MEAN_MOTION_DDOT":0},{"OBJECT_NAME":"STARLINK-35562","OBJECT_ID":"2025-235F","EPOCH":"2026-01-01T12:42:57.141792","MEAN_MOTION":15.30213516,"ECCENTRICITY":0.00013827,"INCLINATION":53.1608,"RA_OF_ASC_NODE":197.6002,"ARG_OF_PERICENTER":86.7172,"MEAN_ANOMALY":273.3987,"EPHEMERIS_TYPE":0,"CLASSIFICATION_TYPE":"U","NORAD_CAT_ID":66063,"ELEMENT_SET_NO":999,"REV_AT_EPOCH":1263,"BSTAR":0.0011262905,"MEAN_MOTION_DOT":0.00033161,"MEAN_MOTION_DDOT":0},{"OBJECT_NAME":"STARLINK-35542","OBJECT_ID":"2025-235G","EPOCH":"2025-12-31T20:35:02.639616","MEAN_MOTION":15.30284481,"ECCENTRICITY":0.0001734,"INCLINATION":53.1588,"RA_OF_ASC_NODE":200.5197,"ARG_OF_PERICENTER":88.036,"MEAN_ANOMALY":272.084,"EPHEMERIS_TYPE":0,"CLASSIFICATION_TYPE":"U","NORAD_CAT_ID":66064,"ELEMENT_SET_NO":999,"REV_AT_EPOCH":1253,"BSTAR":0.0026976,"MEAN_MOTION_DOT":0.00080618,"MEAN_MOTION_DDOT":0},{"OBJECT_NAME":"STARLINK-35375","OBJECT_ID":"2025-235H","EPOCH":"2025-12-31T19:25:19.308000","MEAN_MOTION":15.30219601,"ECCENTRICITY":6.541e-5,"INCLINATION":53.1598,"RA_OF_ASC_NODE":200.9251,"ARG_OF_PERICENTER":101.7551,"MEAN_ANOMALY":258.3523,"EPHEMERIS_TYPE":0,"CLASSIFICATION_TYPE":"U","NORAD_CAT_ID":66065,"ELEMENT_SET_NO":999,"REV_AT_EPOCH":1252,"BSTAR":0.0013562089,"MEAN_MOTION_DOT":0.00040049,"MEAN_MOTION_DDOT":0},{"OBJECT_NAME":"STARLINK-35179","OBJECT_ID":"2025-235J","EPOCH":"2025-12-31T20:41:08.337120","MEAN_MOTION":15.30223462,"ECCENTRICITY":7.08e-5,"INCLINATION":53.1593,"RA_OF_ASC_NODE":200.5445,"ARG_OF_PERICENTER":87.5772,"MEAN_ANOMALY":272.5309,"EPHEMERIS_TYPE":0,"CLASSIFICATION_TYPE":"U","NORAD_CAT_ID":66066,"ELEMENT_SET_NO":999,"REV_AT_EPOCH":1253,"BSTAR":0.0006672,"MEAN_MOTION_DOT":0.00019468,"MEAN_MOTION_DDOT":0},{"OBJECT_NAME":"STARLINK-35401","OBJECT_ID":"2025-235K","EPOCH":"2026-01-01T13:37:29.434656","MEAN_MOTION":15.3022911,"ECCENTRICITY":0.00012479,"INCLINATION":53.1587,"RA_OF_ASC_NODE":197.1305,"ARG_OF_PERICENTER":99.8428,"MEAN_ANOMALY":260.2714,"EPHEMERIS_TYPE":0,"CLASSIFICATION_TYPE":"U","NORAD_CAT_ID":66067,"ELEMENT_SET_NO":999,"REV_AT_EPOCH":1261,"BSTAR":0.0014379749,"MEAN_MOTION_DOT":0.00042512,"MEAN_MOTION_DDOT":0},{"OBJECT_NAME":"STARLINK-35422","OBJECT_ID":"2025-235L","EPOCH":"2026-01-01T13:17:42.641664","MEAN_MOTION":15.30210792,"ECCENTRICITY":0.00010585,"INCLINATION":53.1574,"RA_OF_ASC_NODE":197.0353,"ARG_OF_PERICENTER":61.2294,"MEAN_ANOMALY":298.8813,"EPHEMERIS_TYPE":0,"CLASSIFICATION_TYPE":"U","NORAD_CAT_ID":66068,"ELEMENT_SET_NO":999,"REV_AT_EPOCH":1261,"BSTAR":0.0014070201,"MEAN_MOTION_DOT":0.0004156,"MEAN_MOTION_DDOT":0},{"OBJECT_NAME":"STARLINK-35279","OBJECT_ID":"2025-235M","EPOCH":"2026-01-01T13:08:37.157856","MEAN_MOTION":15.30216957,"ECCENTRICITY":0.00013057,"INCLINATION":53.1577,"RA_OF_ASC_NODE":196.9905,"ARG_OF_PERICENTER":124.5194,"MEAN_ANOMALY":235.593,"EPHEMERIS_TYPE":0,"CLASSIFICATION_TYPE":"U","NORAD_CAT_ID":66069,"ELEMENT_SET_NO":999,"REV_AT_EPOCH":1264,"BSTAR":0.0011821677,"MEAN_MOTION_DOT":0.00034836,"MEAN_MOTION_DDOT":0},{"OBJECT_NAME":"STARLINK-35295","OBJECT_ID":"2025-235N","EPOCH":"2025-12-31T19:19:14.460672","MEAN_MOTION":15.30206757,"ECCENTRICITY":7.865e-5,"INCLINATION":53.1605,"RA_OF_ASC_NODE":200.8914,"ARG_OF_PERICENTER":115.7461,"MEAN_ANOMALY":244.3621,"EPHEMERIS_TYPE":0,"CLASSIFICATION_TYPE":"U","NORAD_CAT_ID":66070,"ELEMENT_SET_NO":999,"REV_AT_EPOCH":1252,"BSTAR":0.00095130787,"MEAN_MOTION_DOT":0.00027928,"MEAN_MOTION_DDOT":0},{"OBJECT_NAME":"STARLINK-35323","OBJECT_ID":"2025-235P","EPOCH":"2025-12-31T19:35:47.739264","MEAN_MOTION":15.30208601,"ECCENTRICITY":8.592e-5,"INCLINATION":53.1593,"RA_OF_ASC_NODE":200.2552,"ARG_OF_PERICENTER":90.3382,"MEAN_ANOMALY":269.7717,"EPHEMERIS_TYPE":0,"CLASSIFICATION_TYPE":"U","NORAD_CAT_ID":66071,"ELEMENT_SET_NO":999,"REV_AT_EPOCH":1253,"BSTAR":0.00099220319,"MEAN_MOTION_DOT":0.0002915,"MEAN_MOTION_DDOT":0}]
